{
  "type": "FeatureCollection",
  "features": [
    {
      "type": "Feature",
      "properties": {
        "norad_id": 30709,
        "name": "FENGYUN 1C DEB",
        "group": "fengyun-1c-debris",
        "lat": 14.871040191248408,
        "lon": -24.839415644557764,
        "alt_km": 879.7518481128654,
        "timestamp": "2025-12-25T07:00:34.325100+00:00",
        "meta_object_name": "FENGYUN 1C DEB",
        "meta_object_id": "1999-025ART",
        "meta_epoch": "2025-12-24T15:41:32.073216",
        "meta_mean_motion": 14.17589634,
        "meta_eccentricity": 0.0081637,
        "meta_inclination": 99.1454,
        "meta_ra_of_asc_node": 336.9555,
        "meta_arg_of_pericenter": 236.1167,
        "meta_mean_anomaly": 123.2222,
        "meta_ephemeris_type": 0,
        "meta_classification_type": "U",
        "meta_norad_cat_id": 30709,
        "meta_element_set_no": 999,
        "meta_rev_at_epoch": 96165,
        "meta_bstar": 0.0023421743,
        "meta_mean_motion_dot": 4.873e-05,
        "meta_mean_motion_ddot": 0,
        "tle_line1": "1 30709U 99025ART 25358.65384344  .00004873  00000+0  23422-2 0  9990",
        "tle_line2": "2 30709  99.1454 336.9555 0081637 236.1167 123.2222 14.17589634961659"
      },
      "geometry": {
        "type": "Point",
        "coordinates": [
          -24.839415644557764,
          14.871040191248408
        ]
      }
    },
    {
      "type": "Feature",
      "properties": {
        "norad_id": 30710,
        "name": "FENGYUN 1C DEB",
        "group": "fengyun-1c-debris",
        "lat": -74.68740762835515,
        "lon": -51.022936538159485,
        "alt_km": 1035.0602937505073,
        "timestamp": "2025-12-25T07:00:34.325110+00:00",
        "meta_object_name": "FENGYUN 1C DEB",
        "meta_object_id": "1999-025ARU",
        "meta_epoch": "2025-12-24T22:51:42.150816",
        "meta_mean_motion": 13.94248256,
        "meta_eccentricity": 0.02252098,
        "meta_inclination": 102.7466,
        "meta_ra_of_asc_node": 252.7487,
        "meta_arg_of_pericenter": 54.3132,
        "meta_mean_anomaly": 322.8851,
        "meta_ephemeris_type": 0,
        "meta_classification_type": "U",
        "meta_norad_cat_id": 30710,
        "meta_element_set_no": 999,
        "meta_rev_at_epoch": 94959,
        "meta_bstar": 0.002850124,
        "meta_mean_motion_dot": 4.604e-05,
        "meta_mean_motion_ddot": 0,
        "tle_line1": "1 30710U 99025ARU 25358.95257119  .00004604  00000+0  28501-2 0  9999",
        "tle_line2": "2 30710 102.7466 252.7487 0225209  54.3132 322.8851 13.94248256949591"
      },
      "geometry": {
        "type": "Point",
        "coordinates": [
          -51.022936538159485,
          -74.68740762835515
        ]
      }
    },
    {
      "type": "Feature",
      "properties": {
        "norad_id": 30714,
        "name": "FENGYUN 1C DEB",
        "group": "fengyun-1c-debris",
        "lat": -46.23449242742969,
        "lon": 56.79955519458698,
        "alt_km": 869.0355089264631,
        "timestamp": "2025-12-25T07:00:34.325121+00:00",
        "meta_object_name": "FENGYUN 1C DEB",
        "meta_object_id": "1999-025ARY",
        "meta_epoch": "2025-12-24T19:34:10.610976",
        "meta_mean_motion": 14.03306346,
        "meta_eccentricity": 0.00670886,
        "meta_inclination": 98.8344,
        "meta_ra_of_asc_node": 46.9922,
        "meta_arg_of_pericenter": 248.4007,
        "meta_mean_anomaly": 177.2987,
        "meta_ephemeris_type": 0,
        "meta_classification_type": "U",
        "meta_norad_cat_id": 30714,
        "meta_element_set_no": 999,
        "meta_rev_at_epoch": 96162,
        "meta_bstar": 0.00038806621,
        "meta_mean_motion_dot": 5.75e-06,
        "meta_mean_motion_ddot": 0,
        "tle_line1": "1 30714U 99025ARY 25358.81540059  .00000575  00000+0  38807-3 0  9990",
        "tle_line2": "2 30714  98.8344  46.9922 0067088 248.4007 177.2987 14.03306346961624"
      },
      "geometry": {
        "type": "Point",
        "coordinates": [
          56.79955519458698,
          -46.23449242742969
        ]
      }
    },
    {
      "type": "Feature",
      "properties": {
        "norad_id": 30715,
        "name": "FENGYUN 1C DEB",
        "group": "fengyun-1c-debris",
        "lat": -27.798716107224838,
        "lon": 73.30221943503362,
        "alt_km": 894.8767192709265,
        "timestamp": "2025-12-25T07:00:34.325132+00:00",
        "meta_object_name": "FENGYUN 1C DEB",
        "meta_object_id": "1999-025ARZ",
        "meta_epoch": "2025-12-24T17:33:54.831168",
        "meta_mean_motion": 14.14773993,
        "meta_eccentricity": 0.00673217,
        "meta_inclination": 98.9751,
        "meta_ra_of_asc_node": 67.9597,
        "meta_arg_of_pericenter": 135.0384,
        "meta_mean_anomaly": 225.6268,
        "meta_ephemeris_type": 0,
        "meta_classification_type": "U",
        "meta_norad_cat_id": 30715,
        "meta_element_set_no": 999,
        "meta_rev_at_epoch": 96351,
        "meta_bstar": 0.001660759,
        "meta_mean_motion_dot": 3.228e-05,
        "meta_mean_motion_ddot": 0,
        "tle_line1": "1 30715U 99025ARZ 25358.73188462  .00003228  00000+0  16608-2 0  9990",
        "tle_line2": "2 30715  98.9751  67.9597 0067321 135.0384 225.6268 14.14773993963516"
      },
      "geometry": {
        "type": "Point",
        "coordinates": [
          73.30221943503362,
          -27.798716107224838
        ]
      }
    },
    {
      "type": "Feature",
      "properties": {
        "norad_id": 30716,
        "name": "FENGYUN 1C DEB",
        "group": "fengyun-1c-debris",
        "lat": -16.720156254840482,
        "lon": 0.9654637971306911,
        "alt_km": 647.1880285017069,
        "timestamp": "2025-12-25T07:00:34.325142+00:00",
        "meta_object_name": "FENGYUN 1C DEB",
        "meta_object_id": "1999-025ASA",
        "meta_epoch": "2025-12-23T12:12:41.076000",
        "meta_mean_motion": 14.79915018,
        "meta_eccentricity": 0.00206247,
        "meta_inclination": 98.8716,
        "meta_ra_of_asc_node": 181.6867,
        "meta_arg_of_pericenter": 48.0444,
        "meta_mean_anomaly": 13.3342,
        "meta_ephemeris_type": 0,
        "meta_classification_type": "U",
        "meta_norad_cat_id": 30716,
        "meta_element_set_no": 999,
        "meta_rev_at_epoch": 97983,
        "meta_bstar": 0.0036936594,
        "meta_mean_motion_dot": 0.00028031,
        "meta_mean_motion_ddot": 0,
        "tle_line1": "1 30716U 99025ASA 25357.50880875  .00028031  00000+0  36937-2 0  9998",
        "tle_line2": "2 30716  98.8716 181.6867 0020624  48.0444  13.3342 14.79915018979830"
      },
      "geometry": {
        "type": "Point",
        "coordinates": [
          0.9654637971306911,
          -16.720156254840482
        ]
      }
    },
    {
      "type": "Feature",
      "properties": {
        "norad_id": 30717,
        "name": "FENGYUN 1C DEB",
        "group": "fengyun-1c-debris",
        "lat": -65.52153454868629,
        "lon": -130.11701739947046,
        "alt_km": 798.3773917594117,
        "timestamp": "2025-12-25T07:00:34.325152+00:00",
        "meta_object_name": "FENGYUN 1C DEB",
        "meta_object_id": "1999-025ASB",
        "meta_epoch": "2025-12-24T04:29:37.157568",
        "meta_mean_motion": 14.20604613,
        "meta_eccentricity": 0.00491208,
        "meta_inclination": 99.0161,
        "meta_ra_of_asc_node": 69.1672,
        "meta_arg_of_pericenter": 225.2588,
        "meta_mean_anomaly": 134.4586,
        "meta_ephemeris_type": 0,
        "meta_classification_type": "U",
        "meta_norad_cat_id": 30717,
        "meta_element_set_no": 999,
        "meta_rev_at_epoch": 96699,
        "meta_bstar": 0.0014340874,
        "meta_mean_motion_dot": 3.078e-05,
        "meta_mean_motion_ddot": 0,
        "tle_line1": "1 30717U 99025ASB 25358.18723562  .00003078  00000+0  14341-2 0  9992",
        "tle_line2": "2 30717  99.0161  69.1672 0049120 225.2588 134.4586 14.20604613966992"
      },
      "geometry": {
        "type": "Point",
        "coordinates": [
          -130.11701739947046,
          -65.52153454868629
        ]
      }
    },
    {
      "type": "Feature",
      "properties": {
        "norad_id": 30718,
        "name": "FENGYUN 1C DEB",
        "group": "fengyun-1c-debris",
        "lat": 49.86793552877884,
        "lon": -89.45950434470726,
        "alt_km": 765.1963999397676,
        "timestamp": "2025-12-25T07:00:34.325163+00:00",
        "meta_object_name": "FENGYUN 1C DEB",
        "meta_object_id": "1999-025ASC",
        "meta_epoch": "2025-12-23T22:22:37.269120",
        "meta_mean_motion": 14.24423886,
        "meta_eccentricity": 0.0057063,
        "meta_inclination": 98.8901,
        "meta_ra_of_asc_node": 78.4653,
        "meta_arg_of_pericenter": 124.9351,
        "meta_mean_anomaly": 235.7206,
        "meta_ephemeris_type": 0,
        "meta_classification_type": "U",
        "meta_norad_cat_id": 30718,
        "meta_element_set_no": 999,
        "meta_rev_at_epoch": 96933,
        "meta_bstar": 0.0015071,
        "meta_mean_motion_dot": 3.504e-05,
        "meta_mean_motion_ddot": 0,
        "tle_line1": "1 30718U 99025ASC 25357.93237580  .00003504  00000+0  15071-2 0  9990",
        "tle_line2": "2 30718  98.8901  78.4653 0057063 124.9351 235.7206 14.24423886969332"
      },
      "geometry": {
        "type": "Point",
        "coordinates": [
          -89.45950434470726,
          49.86793552877884
        ]
      }
    }
  ]
}